start=new Date('2023-06-30T00:00:00.000Z').valueOf();
sats=[{"MEAN_MOTION_DDOT":"0.0000000000000","FILE":"3945300","PERIOD":"95.437","TIME_SYSTEM":"UTC","OBJECT_TYPE":"PAYLOAD","ARG_OF_PERICENTER":"97.6500","CLASSIFICATION_TYPE":"U","BSTAR":"-0.00000749310000","GP_ID":"234614046","SEMIMAJOR_AXIS":"6917.871","MEAN_MOTION_DOT":"-0.00000407","INCLINATION":"53.2167","ECCENTRICITY":"0.00012720","REV_AT_EPOCH":"2940","NORAD_CAT_ID":"54810","APOAPSIS":"540.616","ELEMENT_SET_NO":"999","OBJECT_ID":"2022-175BE","RA_OF_ASC_NODE":"124.0760","LAUNCH_DATE":"2022-12-17","EPHEMERIS_TYPE":"0","COUNTRY_CODE":"US","CENTER_NAME":"EARTH","REF_FRAME":"TEME","TLE_LINE1":"1 54810U 22175BE  23180.13749084 -.00000407  00000-0 -74931-5 0  9997","EPOCH":"2023-06-29T03:17:59.208576","PERIAPSIS":"538.856","MEAN_ANOMALY":"262.4637","OBJECT_NAME":"STARLINK-5408","RCS_SIZE":"LARGE","MEAN_ELEMENT_THEORY":"SGP4","TLE_LINE2":"2 54810  53.2167 124.0760 0001272  97.6500 262.4637 15.08843170 29405","SITE":"AFETR","DECAY_DATE":null,"MEAN_MOTION":"15.08843170"},{"REF_FRAME":"TEME","CENTER_NAME":"EARTH","EPOCH":"2023-06-29T04:04:15.080736","TLE_LINE1":"1 54811U 22175BF  23180.16961899  .00000122  00000-0  25746-4 0  9992","EPHEMERIS_TYPE":"0","LAUNCH_DATE":"2022-12-17","RA_OF_ASC_NODE":"123.5678","OBJECT_ID":"2022-175BF","ELEMENT_SET_NO":"999","COUNTRY_CODE":"US","MEAN_MOTION":"15.08836486","DECAY_DATE":null,"OBJECT_NAME":"STARLINK-5424","MEAN_ANOMALY":"274.8201","PERIAPSIS":"538.817","SITE":"AFETR","TLE_LINE2":"2 54811  53.2176 123.5678 0001358  85.2946 274.8201 15.08836486 29417","MEAN_ELEMENT_THEORY":"SGP4","RCS_SIZE":"LARGE","PERIOD":"95.438","ARG_OF_PERICENTER":"85.2946","TIME_SYSTEM":"UTC","OBJECT_TYPE":"PAYLOAD","FILE":"3945562","MEAN_MOTION_DDOT":"0.0000000000000","ECCENTRICITY":"0.00013580","MEAN_MOTION_DOT":"0.00000122","INCLINATION":"53.2176","SEMIMAJOR_AXIS":"6917.891","APOAPSIS":"540.696","NORAD_CAT_ID":"54811","REV_AT_EPOCH":"2941","CLASSIFICATION_TYPE":"U","GP_ID":"234620361","BSTAR":"0.00002574600000"},{"MEAN_MOTION":"15.02535525","DECAY_DATE":null,"OBJECT_NAME":"STARLINK-5382","MEAN_ANOMALY":"96.6412","PERIAPSIS":"557.917","TLE_LINE2":"2 54820  43.0059  80.0034 0001681 263.4239  96.6412 15.02535525 27967","SITE":"AFETR","MEAN_ELEMENT_THEORY":"SGP4","RCS_SIZE":"LARGE","REF_FRAME":"TEME","CENTER_NAME":"EARTH","EPOCH":"2023-06-29T18:15:43.194240","TLE_LINE1":"1 54820U 22177A   23180.76091660 -.00000447  00000-0 -17974-4 0  9996","LAUNCH_DATE":"2022-12-28","EPHEMERIS_TYPE":"0","RA_OF_ASC_NODE":"80.0034","OBJECT_ID":"2022-177A","ELEMENT_SET_NO":"999","COUNTRY_CODE":"US","ECCENTRICITY":"0.00016810","MEAN_MOTION_DOT":"-0.00000447","INCLINATION":"43.0059","SEMIMAJOR_AXIS":"6937.218","APOAPSIS":"560.249","NORAD_CAT_ID":"54820","REV_AT_EPOCH":"2796","CLASSIFICATION_TYPE":"U","GP_ID":"234632198","BSTAR":"-0.00001797400000","PERIOD":"95.838","ARG_OF_PERICENTER":"263.4239","TIME_SYSTEM":"UTC","OBJECT_TYPE":"PAYLOAD","FILE":"3946030","MEAN_MOTION_DDOT":"0.0000000000000"},{"PERIOD":"95.786","ARG_OF_PERICENTER":"240.3308","OBJECT_TYPE":"PAYLOAD","TIME_SYSTEM":"UTC","FILE":"3945562","MEAN_MOTION_DDOT":"0.0000000000000","ECCENTRICITY":"0.00010710","INCLINATION":"43.0041","MEAN_MOTION_DOT":"0.00001319","SEMIMAJOR_AXIS":"6934.726","APOAPSIS":"557.333","NORAD_CAT_ID":"54821","REV_AT_EPOCH":"2786","CLASSIFICATION_TYPE":"U","GP_ID":"234620500","BSTAR":"0.00011041000000","REF_FRAME":"TEME","CENTER_NAME":"EARTH","EPOCH":"2023-06-29T02:13:02.972928","TLE_LINE1":"1 54821U 22177B   23180.09239552  .00001319  00000-0  11041-3 0  9992","EPHEMERIS_TYPE":"0","LAUNCH_DATE":"2022-12-28","RA_OF_ASC_NODE":"83.5894","ELEMENT_SET_NO":"999","OBJECT_ID":"2022-177B","COUNTRY_CODE":"US","MEAN_MOTION":"15.03345637","DECAY_DATE":null,"OBJECT_NAME":"STARLINK-5385","MEAN_ANOMALY":"119.7428","PERIAPSIS":"555.848","TLE_LINE2":"2 54821  43.0041  83.5894 0001071 240.3308 119.7428 15.03345637 27862","SITE":"AFETR","MEAN_ELEMENT_THEORY":"SGP4","RCS_SIZE":"LARGE"},{"MEAN_MOTION_DDOT":"0.0000000000000","FILE":"3946035","ARG_OF_PERICENTER":"281.2136","TIME_SYSTEM":"UTC","OBJECT_TYPE":"PAYLOAD","PERIOD":"95.836","GP_ID":"234631909","BSTAR":"-0.00091221000000","CLASSIFICATION_TYPE":"U","APOAPSIS":"560.100","REV_AT_EPOCH":"2796","NORAD_CAT_ID":"54822","MEAN_MOTION_DOT":"-0.00012516","INCLINATION":"43.0034","ECCENTRICITY":"0.00016240","SEMIMAJOR_AXIS":"6937.109","COUNTRY_CODE":"US","LAUNCH_DATE":"2022-12-28","EPHEMERIS_TYPE":"0","RA_OF_ASC_NODE":"79.8698","OBJECT_ID":"2022-177C","ELEMENT_SET_NO":"999","TLE_LINE1":"1 54822U 22177C   23180.74313679 -.00012516  00000-0 -91221-3 0  9999","EPOCH":"2023-06-29T17:50:07.018656","REF_FRAME":"TEME","CENTER_NAME":"EARTH","SITE":"AFETR","TLE_LINE2":"2 54822  43.0034  79.8698 0001624 281.2136  78.8524 15.02571024 27965","RCS_SIZE":"LARGE","MEAN_ELEMENT_THEORY":"SGP4","MEAN_ANOMALY":"78.8524","PERIAPSIS":"557.847","OBJECT_NAME":"STARLINK-5101","DECAY_DATE":null,"MEAN_MOTION":"15.02571024"},{"CENTER_NAME":"EARTH","REF_FRAME":"TEME","EPOCH":"2023-06-29T02:13:38.663040","TLE_LINE1":"1 54823U 22177D   23180.09280860  .00001938  00000-0  15851-3 0  9992","OBJECT_ID":"2022-177D","ELEMENT_SET_NO":"999","RA_OF_ASC_NODE":"83.5943","LAUNCH_DATE":"2022-12-28","EPHEMERIS_TYPE":"0","COUNTRY_CODE":"US","MEAN_MOTION":"15.02529037","DECAY_DATE":null,"OBJECT_NAME":"STARLINK-5106","MEAN_ANOMALY":"90.0642","PERIAPSIS":"558.052","MEAN_ELEMENT_THEORY":"SGP4","RCS_SIZE":"LARGE","TLE_LINE2":"2 54823  43.0045  83.5943 0001515 270.0027  90.0642 15.02529037 27860","SITE":"AFETR","PERIOD":"95.838","TIME_SYSTEM":"UTC","OBJECT_TYPE":"PAYLOAD","ARG_OF_PERICENTER":"270.0027","FILE":"3945555","MEAN_MOTION_DDOT":"0.0000000000000","SEMIMAJOR_AXIS":"6937.238","ECCENTRICITY":"0.00015150","MEAN_MOTION_DOT":"0.00001938","INCLINATION":"43.0045","NORAD_CAT_ID":"54823","REV_AT_EPOCH":"2786","APOAPSIS":"560.154","CLASSIFICATION_TYPE":"U","BSTAR":"0.00015851000000","GP_ID":"234620247"},{"CLASSIFICATION_TYPE":"U","GP_ID":"234620443","BSTAR":"0.00000829860000","INCLINATION":"43.0046","MEAN_MOTION_DOT":"-0.00000092","ECCENTRICITY":"0.00015890","SEMIMAJOR_AXIS":"6937.217","APOAPSIS":"560.185","REV_AT_EPOCH":"2785","NORAD_CAT_ID":"54824","MEAN_MOTION_DDOT":"0.0000000000000","FILE":"3945558","PERIOD":"95.838","ARG_OF_PERICENTER":"268.4463","TIME_SYSTEM":"UTC","OBJECT_TYPE":"PAYLOAD","MEAN_ANOMALY":"91.6198","PERIAPSIS":"557.980","OBJECT_NAME":"STARLINK-4643","TLE_LINE2":"2 54824  43.0046  83.9292 0001589 268.4463  91.6198 15.02535693 27856","SITE":"AFETR","RCS_SIZE":"LARGE","MEAN_ELEMENT_THEORY":"SGP4","DECAY_DATE":null,"MEAN_MOTION":"15.02535693","RA_OF_ASC_NODE":"83.9292","LAUNCH_DATE":"2022-12-28","EPHEMERIS_TYPE":"0","ELEMENT_SET_NO":"999","OBJECT_ID":"2022-177E","COUNTRY_CODE":"US","REF_FRAME":"TEME","CENTER_NAME":"EARTH","TLE_LINE1":"1 54824U 22177E   23180.02299985 -.00000092  00000-0  82986-5 0  9990","EPOCH":"2023-06-29T00:33:07.187040"},{"PERIOD":"95.838","OBJECT_TYPE":"PAYLOAD","TIME_SYSTEM":"UTC","ARG_OF_PERICENTER":"261.1455","FILE":"3945558","MEAN_MOTION_DDOT":"0.0000000000000","SEMIMAJOR_AXIS":"6937.229","ECCENTRICITY":"0.00011820","INCLINATION":"43.0042","MEAN_MOTION_DOT":"-0.00000240","NORAD_CAT_ID":"54825","REV_AT_EPOCH":"2787","APOAPSIS":"559.914","CLASSIFICATION_TYPE":"U","BSTAR":"-0.00000270790000","GP_ID":"234620296","CENTER_NAME":"EARTH","REF_FRAME":"TEME","EPOCH":"2023-06-29T03:34:59.301408","TLE_LINE1":"1 54825U 22177F   23180.14929747 -.00000240  00000-0 -27079-5 0  9998","ELEMENT_SET_NO":"999","OBJECT_ID":"2022-177F","RA_OF_ASC_NODE":"83.1548","LAUNCH_DATE":"2022-12-28","EPHEMERIS_TYPE":"0","COUNTRY_CODE":"US","MEAN_MOTION":"15.02531927","DECAY_DATE":null,"OBJECT_NAME":"STARLINK-4801","PERIAPSIS":"558.274","MEAN_ANOMALY":"98.9254","MEAN_ELEMENT_THEORY":"SGP4","RCS_SIZE":"LARGE","SITE":"AFETR","TLE_LINE2":"2 54825  43.0042  83.1548 0001182 261.1455  98.9254 15.02531927 27870"},{"MEAN_MOTION":"15.02532623","DECAY_DATE":null,"OBJECT_NAME":"STARLINK-5107","PERIAPSIS":"558.014","MEAN_ANOMALY":"82.0855","TLE_LINE2":"2 54826  43.0030  83.1380 0001554 277.9811  82.0855 15.02532623 27871","SITE":"AFETR","MEAN_ELEMENT_THEORY":"SGP4","RCS_SIZE":"LARGE","REF_FRAME":"TEME","CENTER_NAME":"EARTH","EPOCH":"2023-06-29T03:31:47.476128","TLE_LINE1":"1 54826U 22177G   23180.14707727  .00001050  00000-0  92784-4 0  9993","LAUNCH_DATE":"2022-12-28","EPHEMERIS_TYPE":"0","RA_OF_ASC_NODE":"83.1380","OBJECT_ID":"2022-177G","ELEMENT_SET_NO":"999","COUNTRY_CODE":"US","ECCENTRICITY":"0.00015540","INCLINATION":"43.0030","MEAN_MOTION_DOT":"0.00001050","SEMIMAJOR_AXIS":"6937.227","APOAPSIS":"560.170","NORAD_CAT_ID":"54826","REV_AT_EPOCH":"2787","CLASSIFICATION_TYPE":"U","GP_ID":"234620307","BSTAR":"0.00009278400000","PERIOD":"95.838","ARG_OF_PERICENTER":"277.9811","TIME_SYSTEM":"UTC","OBJECT_TYPE":"PAYLOAD","FILE":"3945559","MEAN_MOTION_DDOT":"0.0000000000000"},{"REV_AT_EPOCH":"2786","NORAD_CAT_ID":"54827","APOAPSIS":"560.271","SEMIMAJOR_AXIS":"6937.231","MEAN_MOTION_DOT":"0.00001710","INCLINATION":"43.0048","ECCENTRICITY":"0.00016930","BSTAR":"0.00014167000000","GP_ID":"234620494","CLASSIFICATION_TYPE":"U","OBJECT_TYPE":"PAYLOAD","TIME_SYSTEM":"UTC","ARG_OF_PERICENTER":"256.8143","PERIOD":"95.838","MEAN_MOTION_DDOT":"0.0000000000000","FILE":"3945561","DECAY_DATE":null,"MEAN_MOTION":"15.02531280","RCS_SIZE":"LARGE","MEAN_ELEMENT_THEORY":"SGP4","SITE":"AFETR","TLE_LINE2":"2 54827  43.0048  83.4399 0001693 256.8143 103.2510 15.02531280 27863","PERIAPSIS":"557.922","MEAN_ANOMALY":"103.2510","OBJECT_NAME":"STARLINK-5383","TLE_LINE1":"1 54827U 22177H   23180.07282897  .00001710  00000-0  14167-3 0  9993","EPOCH":"2023-06-29T01:44:52.423008","CENTER_NAME":"EARTH","REF_FRAME":"TEME","COUNTRY_CODE":"US","ELEMENT_SET_NO":"999","OBJECT_ID":"2022-177H","LAUNCH_DATE":"2022-12-28","RA_OF_ASC_NODE":"83.4399","EPHEMERIS_TYPE":"0"}];
